start=new Date('2023-03-21T00:00:00.000Z').valueOf();
sats=[{"DECAY_DATE":null,"COUNTRY_CODE":"US","SEMIMAJOR_AXIS":"6917.898","OBJECT_ID":"2022-016AA","MEAN_ELEMENT_THEORY":"SGP4","MEAN_ANOMALY":"264.7870","EPOCH":"2023-03-20T11:49:16.795200","TLE_LINE2":"2 51738  53.2157 150.7611 0001486  95.3292 264.7870 15.08834361 59736","PERIOD":"95.438","INCLINATION":"53.2157","REF_FRAME":"TEME","APOAPSIS":"540.791","ECCENTRICITY":"0.00014860","RA_OF_ASC_NODE":"150.7611","OBJECT_NAME":"STARLINK-3515","FILE":"3865912","PERIAPSIS":"538.735","CENTER_NAME":"EARTH","TIME_SYSTEM":"UTC","GP_ID":"228517011","REV_AT_EPOCH":"5973","CLASSIFICATION_TYPE":"U","MEAN_MOTION_DDOT":"0.0000000000000","BSTAR":"0.00071230000000","ELEMENT_SET_NO":"999","MEAN_MOTION_DOT":"0.00011065","SITE":"AFETR","RCS_SIZE":"LARGE","NORAD_CAT_ID":"51738","EPHEMERIS_TYPE":"0","MEAN_MOTION":"15.08834361","TLE_LINE1":"1 51738U 22016AA  23079.49255550  .00011065  00000-0  71230-3 0  9990","LAUNCH_DATE":"2022-02-21","ARG_OF_PERICENTER":"95.3292","OBJECT_TYPE":"PAYLOAD"},{"PERIOD":"95.437","TLE_LINE2":"2 51739  53.2124 150.4106 0001494  69.0620 291.0532 15.08848990 60866","RA_OF_ASC_NODE":"150.4106","APOAPSIS":"540.751","ECCENTRICITY":"0.00014940","REF_FRAME":"TEME","INCLINATION":"53.2124","OBJECT_NAME":"STARLINK-3516","PERIAPSIS":"538.684","FILE":"3865888","DECAY_DATE":null,"COUNTRY_CODE":"US","OBJECT_ID":"2022-016AB","SEMIMAJOR_AXIS":"6917.853","EPOCH":"2023-03-20T13:40:33.645504","MEAN_ANOMALY":"291.0532","MEAN_ELEMENT_THEORY":"SGP4","SITE":"AFETR","MEAN_MOTION_DOT":"0.00012447","NORAD_CAT_ID":"51739","RCS_SIZE":"LARGE","TLE_LINE1":"1 51739U 22016AB  23079.56983386  .00012447  00000-0  79856-3 0  9991","MEAN_MOTION":"15.08848990","EPHEMERIS_TYPE":"0","OBJECT_TYPE":"PAYLOAD","ARG_OF_PERICENTER":"69.0620","LAUNCH_DATE":"2022-02-21","CENTER_NAME":"EARTH","REV_AT_EPOCH":"6086","GP_ID":"228493122","TIME_SYSTEM":"UTC","CLASSIFICATION_TYPE":"U","MEAN_MOTION_DDOT":"0.0000000000000","BSTAR":"0.00079856000000","ELEMENT_SET_NO":"999"},{"REV_AT_EPOCH":"5973","GP_ID":"228517509","TIME_SYSTEM":"UTC","BSTAR":"0.00143260000000","MEAN_MOTION_DDOT":"0.0000000000000","CLASSIFICATION_TYPE":"U","ELEMENT_SET_NO":"999","CENTER_NAME":"EARTH","MEAN_MOTION":"15.08850742","TLE_LINE1":"1 51740U 22016AC  23079.48518937  .00022592  00000-0  14326-2 0  9992","EPHEMERIS_TYPE":"0","LAUNCH_DATE":"2022-02-21","ARG_OF_PERICENTER":"113.4841","OBJECT_TYPE":"PAYLOAD","MEAN_MOTION_DOT":"0.00022592","SITE":"AFETR","RCS_SIZE":"LARGE","NORAD_CAT_ID":"51740","OBJECT_ID":"2022-016AC","SEMIMAJOR_AXIS":"6917.848","MEAN_ANOMALY":"246.6261","EPOCH":"2023-03-20T11:38:40.361568","MEAN_ELEMENT_THEORY":"SGP4","DECAY_DATE":null,"COUNTRY_CODE":"US","OBJECT_NAME":"STARLINK-3500","PERIAPSIS":"538.988","FILE":"3865912","TLE_LINE2":"2 51740  53.2159 150.7936 0001047 113.4841 246.6261 15.08850742 59730","PERIOD":"95.437","REF_FRAME":"TEME","RA_OF_ASC_NODE":"150.7936","APOAPSIS":"540.437","ECCENTRICITY":"0.00010470","INCLINATION":"53.2159"},{"CENTER_NAME":"EARTH","CLASSIFICATION_TYPE":"U","MEAN_MOTION_DDOT":"0.0000000000000","ELEMENT_SET_NO":"999","BSTAR":"0.00072555000000","TIME_SYSTEM":"UTC","REV_AT_EPOCH":"5974","GP_ID":"228548059","RCS_SIZE":"LARGE","NORAD_CAT_ID":"51741","MEAN_MOTION_DOT":"0.00011280","SITE":"AFETR","LAUNCH_DATE":"2022-02-21","ARG_OF_PERICENTER":"103.8309","OBJECT_TYPE":"PAYLOAD","EPHEMERIS_TYPE":"0","MEAN_MOTION":"15.08845681","TLE_LINE1":"1 51741U 22016AD  23079.56247016  .00011280  00000-0  72555-3 0  9990","COUNTRY_CODE":"US","DECAY_DATE":null,"MEAN_ELEMENT_THEORY":"SGP4","MEAN_ANOMALY":"256.2811","EPOCH":"2023-03-20T13:29:57.421824","SEMIMAJOR_AXIS":"6917.863","OBJECT_ID":"2022-016AD","INCLINATION":"53.2165","REF_FRAME":"TEME","ECCENTRICITY":"0.00011510","APOAPSIS":"540.524","RA_OF_ASC_NODE":"150.4476","TLE_LINE2":"2 51741  53.2165 150.4476 0001151 103.8309 256.2811 15.08845681 59747","PERIOD":"95.437","FILE":"3866115","PERIAPSIS":"538.932","OBJECT_NAME":"STARLINK-3520"},{"MEAN_ELEMENT_THEORY":"SGP4","EPOCH":"2023-03-20T14:40:13.199232","MEAN_ANOMALY":"272.3422","SEMIMAJOR_AXIS":"6917.840","OBJECT_ID":"2022-016AE","COUNTRY_CODE":"US","DECAY_DATE":null,"FILE":"3866115","PERIAPSIS":"539.150","OBJECT_NAME":"STARLINK-3521","INCLINATION":"53.2160","REF_FRAME":"TEME","APOAPSIS":"540.260","ECCENTRICITY":"0.00008020","RA_OF_ASC_NODE":"150.1979","TLE_LINE2":"2 51742  53.2160 150.1979 0000802  87.7661 272.3422 15.08853135 59752","PERIOD":"95.437","MEAN_MOTION_DDOT":"0.0000000000000","CLASSIFICATION_TYPE":"U","ELEMENT_SET_NO":"999","BSTAR":"0.00143220000000","TIME_SYSTEM":"UTC","GP_ID":"228547809","REV_AT_EPOCH":"5975","CENTER_NAME":"EARTH","LAUNCH_DATE":"2022-02-21","ARG_OF_PERICENTER":"87.7661","OBJECT_TYPE":"PAYLOAD","EPHEMERIS_TYPE":"0","MEAN_MOTION":"15.08853135","TLE_LINE1":"1 51742U 22016AE  23079.61126388  .00022587  00000-0  14322-2 0  9994","RCS_SIZE":"LARGE","NORAD_CAT_ID":"51742","MEAN_MOTION_DOT":"0.00022587","SITE":"AFETR"},{"MEAN_ELEMENT_THEORY":"SGP4","EPOCH":"2023-03-20T10:37:47.270208","MEAN_ANOMALY":"257.0846","SEMIMAJOR_AXIS":"6917.845","OBJECT_ID":"2022-016AF","COUNTRY_CODE":"US","DECAY_DATE":null,"FILE":"3865912","PERIAPSIS":"538.473","OBJECT_NAME":"STARLINK-3512","INCLINATION":"53.2171","REF_FRAME":"TEME","APOAPSIS":"540.948","RA_OF_ASC_NODE":"140.9932","ECCENTRICITY":"0.00017890","PERIOD":"95.437","TLE_LINE2":"2 51743  53.2171 140.9932 0001789 103.0346 257.0846 15.08851460 59869","ELEMENT_SET_NO":"999","MEAN_MOTION_DDOT":"0.0000000000000","CLASSIFICATION_TYPE":"U","BSTAR":"0.00017130000000","TIME_SYSTEM":"UTC","GP_ID":"228517261","REV_AT_EPOCH":"5986","CENTER_NAME":"EARTH","LAUNCH_DATE":"2022-02-21","ARG_OF_PERICENTER":"103.0346","OBJECT_TYPE":"PAYLOAD","EPHEMERIS_TYPE":"0","MEAN_MOTION":"15.08851460","TLE_LINE1":"1 51743U 22016AF  23079.44290822  .00002440  00000-0  17130-3 0  9998","NORAD_CAT_ID":"51743","RCS_SIZE":"LARGE","MEAN_MOTION_DOT":"0.00002440","SITE":"AFETR"},{"SITE":"AFETR","MEAN_MOTION_DOT":"0.00000724","RCS_SIZE":"LARGE","NORAD_CAT_ID":"51744","TLE_LINE1":"1 51744U 22016AG  23079.47510795  .00000724  00000-0  63565-4 0  9993","MEAN_MOTION":"15.08845172","EPHEMERIS_TYPE":"0","OBJECT_TYPE":"PAYLOAD","LAUNCH_DATE":"2022-02-21","ARG_OF_PERICENTER":"112.4428","CENTER_NAME":"EARTH","GP_ID":"228518009","REV_AT_EPOCH":"5973","TIME_SYSTEM":"UTC","MEAN_MOTION_DDOT":"0.0000000000000","BSTAR":"0.00006356500000","CLASSIFICATION_TYPE":"U","ELEMENT_SET_NO":"999","PERIOD":"95.437","TLE_LINE2":"2 51744  53.2146 150.8358 0001454 112.4428 247.6719 15.08845172 59731","RA_OF_ASC_NODE":"150.8358","APOAPSIS":"540.735","ECCENTRICITY":"0.00014540","REF_FRAME":"TEME","INCLINATION":"53.2146","OBJECT_NAME":"STARLINK-3452","PERIAPSIS":"538.724","FILE":"3865912","DECAY_DATE":null,"COUNTRY_CODE":"US","OBJECT_ID":"2022-016AG","SEMIMAJOR_AXIS":"6917.865","EPOCH":"2023-03-20T11:24:09.326880","MEAN_ANOMALY":"247.6719","MEAN_ELEMENT_THEORY":"SGP4"},{"SEMIMAJOR_AXIS":"6917.878","OBJECT_ID":"2022-016AH","MEAN_ELEMENT_THEORY":"SGP4","EPOCH":"2023-03-20T11:43:57.954144","MEAN_ANOMALY":"262.7155","DECAY_DATE":null,"COUNTRY_CODE":"US","OBJECT_NAME":"STARLINK-3449","FILE":"3865912","PERIAPSIS":"539.002","PERIOD":"95.438","TLE_LINE2":"2 51745  53.2150 150.7756 0001071  97.3958 262.7155 15.08840830 59730","INCLINATION":"53.2150","REF_FRAME":"TEME","APOAPSIS":"540.484","ECCENTRICITY":"0.00010710","RA_OF_ASC_NODE":"150.7756","TIME_SYSTEM":"UTC","GP_ID":"228518258","REV_AT_EPOCH":"5973","BSTAR":"0.00163270000000","MEAN_MOTION_DDOT":"0.0000000000000","ELEMENT_SET_NO":"999","CLASSIFICATION_TYPE":"U","CENTER_NAME":"EARTH","EPHEMERIS_TYPE":"0","MEAN_MOTION":"15.08840830","TLE_LINE1":"1 51745U 22016AH  23079.48886521  .00025792  00000-0  16327-2 0  9992","LAUNCH_DATE":"2022-02-21","ARG_OF_PERICENTER":"97.3958","OBJECT_TYPE":"PAYLOAD","MEAN_MOTION_DOT":"0.00025792","SITE":"AFETR","RCS_SIZE":"LARGE","NORAD_CAT_ID":"51745"},{"GP_ID":"228492940","REV_AT_EPOCH":"6100","TIME_SYSTEM":"UTC","BSTAR":"0.00033200000000","MEAN_MOTION_DDOT":"0.0000000000000","CLASSIFICATION_TYPE":"U","ELEMENT_SET_NO":"999","CENTER_NAME":"EARTH","MEAN_MOTION":"15.08843925","TLE_LINE1":"1 51746U 22016AJ  23079.57074699  .00005000  00000-0  33200-3 0  9998","EPHEMERIS_TYPE":"0","LAUNCH_DATE":"2022-02-21","ARG_OF_PERICENTER":"108.5241","OBJECT_TYPE":"PAYLOAD","MEAN_MOTION_DOT":"0.00005000","SITE":"AFETR","NORAD_CAT_ID":"51746","RCS_SIZE":"LARGE","OBJECT_ID":"2022-016AJ","SEMIMAJOR_AXIS":"6917.868","MEAN_ANOMALY":"251.5856","EPOCH":"2023-03-20T13:41:52.539936","MEAN_ELEMENT_THEORY":"SGP4","DECAY_DATE":null,"COUNTRY_CODE":"US","OBJECT_NAME":"STARLINK-3502","PERIAPSIS":"539.068","FILE":"3865888","PERIOD":"95.437","TLE_LINE2":"2 51746  53.2154 140.4083 0000962 108.5241 251.5856 15.08843925 61007","REF_FRAME":"TEME","RA_OF_ASC_NODE":"140.4083","APOAPSIS":"540.399","ECCENTRICITY":"0.00009620","INCLINATION":"53.2154"},{"EPOCH":"2023-03-20T09:52:41.905632","MEAN_ANOMALY":"272.3221","MEAN_ELEMENT_THEORY":"SGP4","OBJECT_ID":"2022-016AK","SEMIMAJOR_AXIS":"6917.915","COUNTRY_CODE":"US","DECAY_DATE":null,"PERIAPSIS":"539.058","FILE":"3865912","OBJECT_NAME":"STARLINK-3446","REF_FRAME":"TEME","APOAPSIS":"540.502","RA_OF_ASC_NODE":"151.1227","ECCENTRICITY":"0.00010440","INCLINATION":"53.2160","TLE_LINE2":"2 51747  53.2160 151.1227 0001044  87.7890 272.3221 15.08828612 59723","PERIOD":"95.438","MEAN_MOTION_DDOT":"0.0000000000000","CLASSIFICATION_TYPE":"U","BSTAR":"0.00004140500000","ELEMENT_SET_NO":"999","REV_AT_EPOCH":"5972","GP_ID":"228516762","TIME_SYSTEM":"UTC","CENTER_NAME":"EARTH","ARG_OF_PERICENTER":"87.7890","LAUNCH_DATE":"2022-02-21","OBJECT_TYPE":"PAYLOAD","MEAN_MOTION":"15.08828612","TLE_LINE1":"1 51747U 22016AK  23079.41159613  .00000371  00000-0  41405-4 0  9995","EPHEMERIS_TYPE":"0","NORAD_CAT_ID":"51747","RCS_SIZE":"LARGE","MEAN_MOTION_DOT":"0.00000371","SITE":"AFETR"}];
